[{"OBJECT_NAME":"STARLINK-32763","OBJECT_ID":"2025-014R","EPOCH":"2026-03-08T14:24:46.406304","MEAN_MOTION":15.27621488,"ECCENTRICITY":0.00013991,"INCLINATION":42.9992,"RA_OF_ASC_NODE":160.2923,"ARG_OF_PERICENTER":268.2367,"MEAN_ANOMALY":91.8325,"EPHEMERIS_TYPE":0,"CLASSIFICATION_TYPE":"U","NORAD_CAT_ID":62750,"ELEMENT_SET_NO":999,"REV_AT_EPOCH":6309,"BSTAR":0.0013710272,"MEAN_MOTION_DOT":0.00037707,"MEAN_MOTION_DDOT":0},{"OBJECT_NAME":"THOR AGENA B DEB","OBJECT_ID":"1965-098F","EPOCH":"2026-03-09T22:45:15.729408","MEAN_MOTION":13.60223409,"ECCENTRICITY":0.07538154,"INCLINATION":79.8484,"RA_OF_ASC_NODE":20.4001,"ARG_OF_PERICENTER":143.1562,"MEAN_ANOMALY":222.3913,"EPHEMERIS_TYPE":0,"CLASSIFICATION_TYPE":"U","NORAD_CAT_ID":1948,"ELEMENT_SET_NO":999,"REV_AT_EPOCH":79567,"BSTAR":0.00090419941,"MEAN_MOTION_DOT":4.962e-5,"MEAN_MOTION_DDOT":0}]
